[{"OBJECT_NAME":"YAOGAN-43 01D","OBJECT_ID":"2024-148D","EPOCH":"2026-03-09T10:27:16.254720","MEAN_MOTION":15.28369377,"ECCENTRICITY":0.00025569,"INCLINATION":35.001,"RA_OF_ASC_NODE":61.7102,"ARG_OF_PERICENTER":326.2473,"MEAN_ANOMALY":33.808,"EPHEMERIS_TYPE":0,"CLASSIFICATION_TYPE":"U","NORAD_CAT_ID":60461,"ELEMENT_SET_NO":999,"REV_AT_EPOCH":8700,"BSTAR":0.00037765912,"MEAN_MOTION_DOT":0.00010676,"MEAN_MOTION_DDOT":0},{"OBJECT_NAME":"STARLINK-36509","OBJECT_ID":"2026-005E","EPOCH":"2026-03-09T22:00:01.999584","MEAN_MOTION":15.27549973,"ECCENTRICITY":0.00010562,"INCLINATION":43.0014,"RA_OF_ASC_NODE":236.5508,"ARG_OF_PERICENTER":303.7669,"MEAN_ANOMALY":32.8883,"EPHEMERIS_TYPE":0,"CLASSIFICATION_TYPE":"U","NORAD_CAT_ID":67408,"ELEMENT_SET_NO":999,"REV_AT_EPOCH":584,"BSTAR":0.0026600564,"MEAN_MOTION_DOT":0.00073602,"MEAN_MOTION_DDOT":0}]
